ESTCUBE 1               
1 39161U 13021C   22139.27940431  .00001353  00000+0  21865-3 0  9990
2 39161  97.9072 217.2732 0009911 147.8202 212.3640 14.72883287485177
FENGYUN 3C              
1 39260U 13052A   22139.50949560  .00000091  00000+0  67136-4 0  9992
2 39260  98.4563 169.0850 0011285   4.8543 355.2739 14.15920468447826
CASSIOPE                
1 39265U 13055A   22139.57446233  .00017107  00000+0  45595-3 0  9996
2 39265  80.9639 297.9561 0625565  43.8475 321.0643 14.38104710448184
ZACUBE-1 (TSHEPISOSAT)  
1 39417U 13066B   22139.47529224  .00003698  00000+0  45614-3 0  9990
2 39417  97.6349 112.2883 0058963 138.3662 222.2064 14.82224445458831
CINEMA-3 (KHUSAT-2)     
1 39426U 13066L   22139.56085624  .00002627  00000+0  41110-3 0  9999
2 39426  97.7972  80.7500 0102571 329.2550  30.2673 14.70109392455022
TRITON-1                
1 39427U 13066M   22139.58918111  .00004681  00000+0  73556-3 0  9999
2 39427  97.8121  76.6428 0112087 357.8918   2.1801 14.68870481454549
DELFI-N3XT              
1 39428U 13066N   22139.37613120  .00006904  00000+0  10652-2 0  9996
2 39428  97.8138  74.9881 0118289  11.7102 348.6812 14.69014405454269
GOMX-1                  
1 39430U 13066Q   22139.46770700  .00001373  00000+0  25213-3 0  9992
2 39430  97.8125  48.3231 0150558 135.9152 225.4185 14.60098899452062
BRITE-PL1 (LEM)         
1 39431U 13066R   22139.47363444  .00000589  00000+0  13554-3 0  9990
2 39431  97.7045 355.7539 0200694 318.8355  39.7847 14.47326674448171
ICUBE-1                 
1 39432U 13066S   22139.47263252  .00005633  00000+0  55794-3 0  9994
2 39432  97.4680 144.7541 0031131   4.5850 355.5649 14.91841427460383
HUMSAT-D                
1 39433U 13066T   22139.48940999  .00007135  00000+0  66565-3 0  9993
2 39433  97.4505 152.3147 0028729 339.2711  20.7342 14.94181118460894
VELOX-PII               
1 39438U 13066Y   22139.47313961  .00002179  00000+0  29146-3 0  9997
2 39438  97.6901 103.4199 0069194 189.6388 170.3502 14.78811253456722
FIRST-MOVE              
1 39439U 13066Z   22139.34802084  .00006886  00000+0  80365-3 0  9992
2 39439  97.6361 114.4333 0064443 134.5041 226.1467 14.83968554457737
CUBEBUG-2 (LO-74)       
1 39440U 13066AA  22139.59486579  .00002799  00000+0  38575-3 0  9993
2 39440  97.7241  98.3716 0077591 224.2767 135.2220 14.76924702456029
NEE-02 KRYSAOR          
1 39441U 13066AB  22139.30140875  .00001689  00000+0  24220-3 0  9998
2 39441  97.7352  95.2921 0079252 238.8692 120.4727 14.75682777455738
FUNCUBE-1 (AO-73)       
1 39444U 13066AE  22139.44547849  .00003918  00000+0  47092-3 0  9997
2 39444  97.6227 114.6613 0058287 127.0785 233.5779 14.83277187457225
HINCUBE                 
1 39445U 13066AF  22139.49334371  .00004619  00000+0  55661-3 0  9997
2 39445  97.6243 114.5305 0058248 129.0224 231.6196 14.83088738457176
UWE-3                   
1 39446U 13066AG  22139.46367711  .00002745  00000+0  35987-3 0  9996
2 39446  97.6836 104.7872 0068681 182.4215 177.6675 14.79467021456171
AIST-1 (RS-41)          
1 39492U 13078C   22139.54675825  .00001500  00000+0  15882-3 0  9997
2 39492  82.4179 264.2693 0019024 197.8193 162.2356 14.88389524455489
SPROUT                  
1 39770U 14029E   22139.58689412  .00008213  00000+0  84466-3 0  9996
2 39770  97.9382 256.3593 0008603 175.7344 184.4105 14.90559666433360
UNISAT-6                
1 40012U 14033C   22139.48237356  .00002206  00000+0  32839-3 0  9990
2 40012  97.6623 328.9956 0056133 252.4767 107.0304 14.74822026425715
BUGSAT-1 (TITA)         
1 40014U 14033E   22139.58709970  .00002571  00000+0  22933-3 0  9998
2 40014  98.1423 136.8218 0031693 131.2040 229.1926 14.96561853431827
DUCHIFAT-1              
1 40021U 14033M   22139.58417719  .00007005  00000+0  68387-3 0  9993
2 40021  98.0107  89.2697 0013738 130.9870 229.2539 14.92661912430397
NANOSATC-BR1            
1 40024U 14033Q   22139.56719538  .00005916  00000+0  59504-3 0  9998
2 40024  97.9839  82.7727 0012993 136.5438 223.6806 14.91545109429678
QB50P1                  
1 40025U 14033R   22139.38882650  .00004502  00000+0  46788-3 0  9995
2 40025  97.9595  76.5677 0013095 145.9007 214.3054 14.90357093429431
DTUSAT-2                
1 40030U 14033W   22139.36445860  .00004540  00000+0  47804-3 0  9999
2 40030  97.9369  72.0200 0012591 142.8392 217.3699 14.89824981429310
QB50P2                  
1 40032U 14033Y   22139.53757962  .00004392  00000+0  46295-3 0  9997
2 40032  97.9370  72.2060 0012539 143.5658 216.6415 14.89795618429317
POLYITAN-1              
1 40042U 14033AJ  22139.53751835  .00005450  00000+0  56483-3 0  9997
2 40042  97.9696  77.8696 0015465 138.8979 221.3407 14.90346401429340
TIGRISAT                
1 40043U 14033AK  22139.46399499  .00001785  00000+0  26604-3 0  9993
2 40043  97.6571 330.2893 0057898 249.9478 109.5493 14.74942260425355
AISAT                   
1 40054U 14034B   22139.42696840  .00005389  00000+0  72677-3 0  9997
2 40054  98.3571 309.6916 0013243  52.5416 307.6996 14.79517135425181
CANX-4                  
1 40055U 14034C   22139.38051528  .00001492  00000+0  22755-3 0  9994
2 40055  98.3526 295.3865 0015359  90.9499 269.3469 14.75388066424434
CANX-5                  
1 40056U 14034D   22139.45473488  .00001496  00000+0  22808-3 0  9999
2 40056  98.3526 295.4442 0015395  90.9235 269.3737 14.75382673415251
VELOX-I                 
1 40057U 14034E   22139.49175966  .00002832  00000+0  39042-3 0  9997
2 40057  98.3626 310.8924 0011674  66.6998 293.5444 14.79013715425192
METEOR-M 2              
1 40069U 14037A   22139.51847320  .00000057  00000+0  45778-4 0  9997
2 40069  98.4333 158.6410 0006714  53.8034 306.3767 14.20707963407751
DX1                     
1 40071U 14037C   22139.43652647  .00001075  00000+0  14339-3 0  9996
2 40071  98.4141   6.7282 0009432  55.6843 304.5286 14.81818119425040
UKUBE-1                 
1 40074U 14037F   22139.45205690  .00002686  00000+0  31962-3 0  9993
2 40074  98.3869  18.6010 0005198  36.4168 323.7440 14.85284440425764
FIREBIRD 3              
1 40377U 15003B   22139.18433965  .00028117  00000+0  85774-3 0  9998
2 40377  99.1042 357.5894 0103972 124.1949 236.9194 15.28668260403949
FIREBIRD 4              
1 40378U 15003C   22139.53898822  .00032386  00000+0  98354-3 0  9996
2 40378  99.1044 358.2263 0103875 122.6365 238.4946 15.28782572404000
GRIFEX                  
1 40379U 15003D   22139.47560600  .00018188  00000+0  65089-3 0  9993
2 40379  99.1146 344.3801 0117867 163.9319 196.5702 15.22442944403217
CP10 (EXOCUBE)          
1 40380U 15003E   22139.44912238  .00014505  00000+0  56163-3 0  9992
2 40380  99.1228 337.3253 0124992 187.4287 172.5095 15.19276566402753
DEORBITSAIL             
1 40719U 15032E   22139.54371096  .00005092  00000+0  70613-3 0  9999
2 40719  97.7855  18.8426 0017590  97.2043 263.1169 14.78264979369610
NUDT-PHONESAT           
1 40900U 15049B   22139.45208131  .00035480  00000+0  10610-2 0  9992
2 40900  97.4024 157.3027 0010924  44.7765  61.8939 15.34423529370166
XW-2A                   
1 40903U 15049E   22139.39578909  .00028088  00000+0  46308-3 0  9991
2 40903  97.1809 197.9069 0009102 217.2238 199.5474 15.52221186374758
XW-2C                   
1 40906U 15049H   22139.49037970  .00007677  00000+0  37154-3 0  9993
2 40906  97.4934 143.1419 0015913  99.3686  51.6953 15.18746864368523
XW-2D                   
1 40907U 15049J   22139.46091836  .00008949  00000+0  42520-3 0  9998
2 40907  97.4920 143.0688 0015292  95.4413  62.4918 15.19347747368564
LILACSAT-2              
1 40908U 15049K   22139.45609837  .00004296  00000+0  22895-3 0  9998
2 40908  97.5157 140.3306 0017039 114.4951  46.6866 15.15606205368092
XW-2E                   
1 40909U 15049L   22139.44337353  .00013557  00000+0  57828-3 0  9993
2 40909  97.4657 147.5158 0014387  80.4341  57.6410 15.22946826368999
XW-2F                   
1 40910U 15049M   22139.49599670  .00013541  00000+0  58636-3 0  9993
2 40910  97.4733 146.6949 0015221  81.4123  75.4602 15.22426193368778
XW-2B                   
1 40911U 15049N   22139.48376490  .00008745  00000+0  41689-3 0  9996
2 40911  97.4905 143.7014 0015200  96.1767  60.8561 15.19239694368456
KAITUO 1B               
1 40912U 15049P   22139.49160407  .00015655  00000+0  61960-3 0  9999
2 40912  97.4379 151.0436 0014334  51.1815 102.8202 15.25437359369336
TIANWANG 1A (TW-1A)     
1 40928U 15051D   22139.47073611  .00051923  00000+0  70504-3 0  9999
2 40928  97.0411 162.4179 0010501 128.6505 337.9184 15.57405818373722
LAPAN-A2                
1 40931U 15052B   22139.47873332  .00001114  00000+0  65736-4 0  9991
2 40931   6.0007  15.7832 0012929 118.2842 241.8576 14.76798818359051
LQSAT                   
1 40958U 15057A   22139.40475603  .00000582  00000+0  97098-4 0  9991
2 40958  97.7525 186.9141 0019349  56.9470 303.3601 14.73340421355716
ATHENOXAT 1             
1 41168U 15077C   22138.82977090  .00019015  00000+0  81439-3 0  9991
2 41168  14.9938 309.9036 0009959 181.4979 215.7788 15.20206279355798
GALASSIA                
1 41170U 15077E   22139.06273793  .00018479  00000+0  80117-3 0  9995
2 41170  14.9892 298.7804 0010713 215.0663 144.8953 15.19749418355748
VELOX-II                
1 41171U 15077F   22139.29616463  .00014554  00000+0  71138-3 0  9999
2 41171  14.9926   8.7890 0007975  60.2122 299.8991 15.15337142355181
CHUBUSAT-2              
1 41338U 16012B   22139.47827308  .00003715  00000+0  27528-3 0  9997
2 41338  31.0020 208.3766 0013476 225.1915 134.7626 15.01269854343128
CHUBUSAT-3              
1 41339U 16012C   22139.47266969  .00002730  00000+0  20009-3 0  9991
2 41339  31.0111 205.3592 0013103 233.8500 126.0969 15.01355368343127
HORYU-4                 
1 41340U 16012D   22139.48779480  .00006372  00000+0  45373-3 0  9998
2 41340  31.0032 184.0903 0013432 271.5528  88.3569 15.03131412343360
